COMMENT,ORIGINATOR,NORAD_CAT_ID,OBJECT_NAME,OBJECT_TYPE,CLASSIFICATION_TYPE,INTLDES,EPOCH,EPOCH_MICROSECONDS,MEAN_MOTION,ECCENTRICITY,INCLINATION,RA_OF_ASC_NODE,ARG_OF_PERICENTER,MEAN_ANOMALY,EPHEMERIS_TYPE,ELEMENT_SET_NO,REV_AT_EPOCH,BSTAR,MEAN_MOTION_DOT,MEAN_MOTION_DDOT,FILE,TLE_LINE0,TLE_LINE1,TLE_LINE2,OBJECT_ID,OBJECT_NUMBER,SEMIMAJOR_AXIS,PERIOD,APOGEE,PERIGEE,DECAYED
"GENERATED VIA SPACETRACK.ORG API","18 SPCS","48883","SPACEBEE-100","PAYLOAD","U","21059E","2021-12-07 15:51:45","510624","15.12641805","0.0009901","97.5333","108.0815","51.7955","308.4166","0","999","2491","0.00011899","0.00002016","0","3234964","0 SPACEBEE-100","1 48883U 21059E   21341.66094341  .00002016  00000-0  11899-3 0  9992","2 48883  97.5333 108.0815 0009901  51.7955 308.4166 15.12641805 24914","2021-059E","48883","6906.284","95.198","534.987","521.311","0"
"GENERATED VIA SPACETRACK.ORG API","18 SPCS","48883","SPACEBEE-100","PAYLOAD","U","21059E","2021-12-08 07:44:20","194080","15.12644743","0.0009855","97.5333","108.7346","49.7162","310.4929","0","999","2501","0.00012235","0.00002075","0","3235746","0 SPACEBEE-100","1 48883U 21059E   21342.32245595  .00002075  00000-0  12235-3 0  9995","2 48883  97.5333 108.7346 0009855  49.7162 310.4929 15.12644743 25011","2021-059E","48883","6906.275","95.198","534.946","521.334","0"
"GENERATED VIA SPACETRACK.ORG API","18 SPCS","48883","SPACEBEE-100","PAYLOAD","U","21059E","2021-12-08 22:01:39","329184","15.1264671","0.0009809","97.5332","109.3223","47.8715","312.3348","0","999","2510","0.00011525","0.00001951","0","3235972","0 SPACEBEE-100","1 48883U 21059E   21342.91781631  .00001951  00000-0  11525-3 0  9999","2 48883  97.5332 109.3223 0009809  47.8715 312.3348 15.12646710 25105","2021-059E","48883","6906.269","95.197","534.909","521.360","0"
"GENERATED VIA SPACETRACK.ORG API","18 SPCS","48883","SPACEBEE-100","PAYLOAD","U","21059E","2021-12-09 02:47:25","680480","15.12647653","0.0009792","97.5332","109.5182","47.1292","313.0759","0","999","2513","0.00011879","0.00002013","0","3236151","0 SPACEBEE-100","1 48883U 21059E   21343.11626945  .00002013  00000-0  11879-3 0  9990","2 48883  97.5332 109.5182 0009792  47.1292 313.0759 15.12647653 25139","2021-059E","48883","6906.266","95.197","534.894","521.369","0"
"GENERATED VIA SPACETRACK.ORG API","18 SPCS","48883","SPACEBEE-100","PAYLOAD","U","21059E","2021-12-09 18:40:00","163488","15.12650649","0.0009741","97.5331","110.1713","45.0553","315.1467","0","999","2523","0.000128","0.00002174","0","3236488","0 SPACEBEE-100","1 48883U 21059E   21343.77777967  .00002174  00000-0  12800-3 0  9996","2 48883  97.5331 110.1713 0009741  45.0553 315.1467 15.12650649 25236","2021-059E","48883","6906.257","95.197","534.850","521.395","0"
"GENERATED VIA SPACETRACK.ORG API","18 SPCS","48883","SPACEBEE-100","PAYLOAD","U","21059E","2021-12-10 07:22:03","664704","15.12652481","0.0009701","97.533","110.6938","43.3516","316.8477","0","999","2531","0.00012391","0.00002103","0","3236596","0 SPACEBEE-100","1 48883U 21059E   21344.30698686  .00002103  00000-0  12391-3 0  9993","2 48883  97.5330 110.6938 0009701  43.3516 316.8477 15.12652481 25319","2021-059E","48883","6906.252","95.197","534.816","521.417","0"
"GENERATED VIA SPACETRACK.ORG API","18 SPCS","48883","SPACEBEE-100","PAYLOAD","U","21059E","2021-12-10 07:22:03","664704","15.12652481","0.0009701","97.533","110.6938","43.3516","316.8477","0","999","2531","0.00012391","0.00002103","0","3236672","0 SPACEBEE-100","1 48883U 21059E   21344.30698686  .00002103  00000-0  12391-3 0  9993","2 48883  97.5330 110.6938 0009701  43.3516 316.8477 15.12652481 25319","2021-059E","48883","6906.252","95.197","534.816","521.417","0"
"GENERATED VIA SPACETRACK.ORG API","18 SPCS","48883","SPACEBEE-100","PAYLOAD","U","21059E","2021-12-10 18:28:51","659040","15.12654729","0.0009665","97.533","111.1509","41.962","318.235","0","999","2538","0.00012904","0.00002193","0","3237005","0 SPACEBEE-100","1 48883U 21059E   21344.77004235  .00002193  00000-0  12904-3 0  9994","2 48883  97.5330 111.1509 0009665  41.9620 318.2350 15.12654729 25388","2021-059E","48883","6906.245","95.197","534.785","521.435","0"
"GENERATED VIA SPACETRACK.ORG API","18 SPCS","48883","SPACEBEE-100","PAYLOAD","U","21059E","2021-12-11 08:46:10","392384","15.12656791","0.0009658","97.5333","111.7388","39.8973","320.2966","0","999","2547","0.00011549","0.00001956","0","3237354","0 SPACEBEE-100","1 48883U 21059E   21345.36539806  .00001956  00000-0  11549-3 0  9997","2 48883  97.5333 111.7388 0009658  39.8973 320.2966 15.12656791 25478","2021-059E","48883","6906.239","95.197","534.774","521.433","0"
"GENERATED VIA SPACETRACK.ORG API","18 SPCS","48883","SPACEBEE-100","PAYLOAD","U","21059E","2021-12-11 13:31:56","631360","15.12657478","0.0009639","97.5333","111.9348","39.2714","320.9214","0","999","2550","0.00011416","0.00001932","0","3237453","0 SPACEBEE-100","1 48883U 21059E   21345.56384990  .00001932  00000-0  11416-3 0  9998","2 48883  97.5333 111.9348 0009639  39.2714 320.9214 15.12657478 25502","2021-059E","48883","6906.236","95.197","534.758","521.445","0"
"GENERATED VIA SPACETRACK.ORG API","18 SPCS","48883","SPACEBEE-100","PAYLOAD","U","21059E","2021-12-11 15:07:12","41472","15.12657744","0.0009633","97.5333","112.0001","39.0685","321.124","0","999","2551","0.00011399","0.00001929","0","3237650","0 SPACEBEE-100","1 48883U 21059E   21345.63000048  .00001929  00000-0  11399-3 0  9991","2 48883  97.5333 112.0001 0009633  39.0685 321.1240 15.12657744 25518","2021-059E","48883","6906.236","95.197","534.753","521.448","0"
"GENERATED VIA SPACETRACK.ORG API","18 SPCS","48883","SPACEBEE-100","PAYLOAD","U","21059E","2021-12-12 13:20:47","703552","15.1266113","0.0009555","97.5334","112.9144","36.041","324.1464","0","999","2565","0.00011015","0.00001862","0","3238133","0 SPACEBEE-100","1 48883U 21059E   21346.55610768  .00001862  00000-0  11015-3 0  9990","2 48883  97.5334 112.9144 0009555  36.0410 324.1464 15.12661130 25652","2021-059E","48883","6906.225","95.196","534.689","521.491","0"
"GENERATED VIA SPACETRACK.ORG API","18 SPCS","48883","SPACEBEE-100","PAYLOAD","U","21059E","2021-12-12 19:41:49","277472","15.12662216","0.0009533","97.5334","113.1757","35.1966","324.9892","0","999","2569","0.00010977","0.00001856","0","3238295","0 SPACEBEE-100","1 48883U 21059E   21346.82070923  .00001856  00000-0  10977-3 0  9992","2 48883  97.5334 113.1757 0009533  35.1966 324.9892 15.12662216 25690","2021-059E","48883","6906.222","95.196","534.671","521.503","0"
"GENERATED VIA SPACETRACK.ORG API","18 SPCS","48883","SPACEBEE-100","PAYLOAD","U","21059E","2021-12-12 21:17:04","674624","15.12661714","0.0009525","97.5334","113.241","34.9733","325.2121","0","999","2570","0.00010166","0.00001714","0","3238376","0 SPACEBEE-100","1 48883U 21059E   21346.88685966  .00001714  00000-0  10166-3 0  9990","2 48883  97.5334 113.2410 0009525  34.9733 325.2121 15.12661714 25700","2021-059E","48883","6906.224","95.196","534.667","521.510","0"
"GENERATED VIA SPACETRACK.ORG API","18 SPCS","48883","SPACEBEE-100","PAYLOAD","U","21059E","2021-12-13 13:09:38","504448","15.12666015","0.0009473","97.5335","113.8941","32.8238","327.3579","0","999","2580","0.00011746","0.00001991","0","3238998","0 SPACEBEE-100","1 48883U 21059E   21347.54836232  .00001991  00000-0  11746-3 0  9990","2 48883  97.5335 113.8941 0009473  32.8238 327.3579 15.12666015 25805","2021-059E","48883","6906.210","95.196","534.618","521.533","0"
"GENERATED VIA SPACETRACK.ORG API","18 SPCS","48883","SPACEBEE-100","PAYLOAD","U","21059E","2021-12-13 21:05:55","468608","15.12665811","0.0009441","97.5335","114.2207","31.7935","328.3864","0","999","2585","0.00010348","0.00001746","0","3239585","0 SPACEBEE-100","1 48883U 21059E   21347.87911422  .00001746  00000-0  10348-3 0  9996","2 48883  97.5335 114.2207 0009441  31.7935 328.3864 15.12665811 25858","2021-059E","48883","6906.211","95.196","534.596","521.556","0"
"GENERATED VIA SPACETRACK.ORG API","18 SPCS","48883","SPACEBEE-100","PAYLOAD","U","21059E","2021-12-14 00:16:26","223168","15.12666359","0.0009432","97.5335","114.3514","31.3473","328.8318","0","999","2587","0.00010387","0.00001753","0","3239737","0 SPACEBEE-100","1 48883U 21059E   21348.01141462  .00001753  00000-0  10387-3 0  9993","2 48883  97.5335 114.3514 0009432  31.3473 328.8318 15.12666359 25872","2021-059E","48883","6906.209","95.196","534.588","521.560","0"
"GENERATED VIA SPACETRACK.ORG API","18 SPCS","48883","SPACEBEE-100","PAYLOAD","U","21059E","2021-12-14 14:33:44","539200","15.12670172","0.0009387","97.5336","114.9392","29.4199","330.7559","0","999","2596","0.00011798","0.00002","0","3240057","0 SPACEBEE-100","1 48883U 21059E   21348.60676550  .00002000  00000-0  11798-3 0  9992","2 48883  97.5336 114.9392 0009387  29.4199 330.7559 15.12670172 25962","2021-059E","48883","6906.198","95.196","534.546","521.580","0"
"GENERATED VIA SPACETRACK.ORG API","18 SPCS","48883","SPACEBEE-100","PAYLOAD","U","21059E","2021-12-14 20:54:46","14624","15.1267028","0.0009367","97.5336","115.2005","28.5416","331.6326","0","999","2600","0.0001081","0.00001827","0","3240318","0 SPACEBEE-100","1 48883U 21059E   21348.87136591  .00001827  00000-0  10810-3 0  9997","2 48883  97.5336 115.2005 0009367  28.5416 331.6326 15.12670280 26005","2021-059E","48883","6906.197","95.196","534.532","521.593","0"
"GENERATED VIA SPACETRACK.ORG API","18 SPCS","48883","SPACEBEE-100","PAYLOAD","U","21059E","2021-12-15 03:15:47","455488","15.12671428","0.0009344","97.5336","115.4618","27.6921","332.4806","0","999","2604","0.00010919","0.00001846","0","3240447","0 SPACEBEE-100","1 48883U 21059E   21349.13596592  .00001846  00000-0  10919-3 0  9999","2 48883  97.5336 115.4618 0009344  27.6921 332.4806 15.12671428 26044","2021-059E","48883","6906.194","95.196","534.512","521.606","0"
